SAUDISAT 1C (SO-50)     
1 27607U 02058C   26095.12210001  .00001899  00000+0  24059-3 0  9995
2 27607  64.5552 355.0194 0075478 275.8009  83.4496 14.82889051253628
SAUDISAT 2              
1 28371U 04025F   26094.94244629  .00000432  00000+0  10748-3 0  9994
2 28371  98.5511  93.0364 0025123 159.1598 201.0629 14.56638634155083
SAUDISAT 3              
1 31118U 07012B   26095.29131539  .00000546  00000+0  96247-4 0  9995
2 31118  98.1391  45.6751 0015970  98.5877 261.7140 14.71379379 17023
PISAT                   
1 41784U 16059B   26094.98474149  .00001610  00000+0  28165-3 0  9994
2 41784  97.8193  98.5891 0030564  79.9645 280.5007 14.68845502508997
FLYING LAPTOP           
1 42831U 17042G   26095.31726714  .00003341  00000+0  26723-3 0  9998
2 42831  97.4366 253.8228 0019706  12.7860 347.3860 15.00706187475521
SALSAT                  
1 46495U 20068K   26095.25293326  .00010667  00000+0  38421-3 0  9998
2 46495  97.8868  93.9405 0009584 187.7921 172.3170 15.28731219304217
